[
    {
        "Altitude(m)": 610405.3332660617,
        "Argument of Periapsis(deg)": 0.0,
        "Eccentricity": 0.0,
        "Inclination(deg)": 60.0,
        "Latitude(deg)": 52.11129980934972,
        "Longitude(deg)": 152.4775387580287,
        "Mean Anomaly(deg)": 114.54549999999999,
        "RAAN(deg)": 120.0,
        "Satellite Name": "Test1 535",
        "Satellite Number": 535,
        "Semi-Major Axis(m)": 6980739.136638005,
        "Time(s)": 0
    },
    {
        "Altitude(m)": 610321.905814736,
        "Argument of Periapsis(deg)": 0.00010418945913296404,
        "Eccentricity": 0.0,
        "Inclination(deg)": 60.0,
        "Latitude(deg)": 51.7460135174708,
        "Longitude(deg)": 153.24643147596876,
        "Mean Anomaly(deg)": 115.16560614546184,
        "RAAN(deg)": 119.99957995086024,
        "Satellite Name": "Test1 535",
        "Satellite Number": 535,
        "Semi-Major Axis(m)": 6980739.136638005,
        "Time(s)": 10
    }
]